start=new Date('2023-05-23T00:00:00.000Z').valueOf();
sats=[{"ARG_OF_PERICENTER":"90.8616","SITE":"AFETR","GP_ID":"232356348","MEAN_ANOMALY":"269.2514","RCS_SIZE":"LARGE","OBJECT_NAME":"STARLINK-2624","MEAN_MOTION_DDOT":"0.0000000000000","ECCENTRICITY":"0.00012350","CENTER_NAME":"EARTH","PERIAPSIS":"546.344","MEAN_MOTION":"15.06404658","PERIOD":"95.592","OBJECT_ID":"2021-038F","RA_OF_ASC_NODE":"270.0638","EPHEMERIS_TYPE":"0","SEMIMAJOR_AXIS":"6925.334","REF_FRAME":"TEME","MEAN_ELEMENT_THEORY":"SGP4","MEAN_MOTION_DOT":"0.00041229","COUNTRY_CODE":"US","OBJECT_TYPE":"PAYLOAD","CLASSIFICATION_TYPE":"U","REV_AT_EPOCH":"11296","FILE":"3914964","EPOCH":"2023-05-22T13:49:31.306656","TIME_SYSTEM":"UTC","BSTAR":"0.00277030000000","TLE_LINE1":"1 48358U 21038F   23142.57605679  .00041229  00000-0  27703-2 0  9998","TLE_LINE2":"2 48358  53.0541 270.0638 0001235  90.8616 269.2514 15.06404658112962","NORAD_CAT_ID":"48358","INCLINATION":"53.0541","LAUNCH_DATE":"2021-05-04","ELEMENT_SET_NO":"999","APOAPSIS":"548.055","DECAY_DATE":null},{"TLE_LINE1":"1 48359U 21038G   23142.63870376  .00050536  00000-0  33835-2 0  9998","TLE_LINE2":"2 48359  53.0548 269.7814 0001367  43.1958 316.9138 15.06442524112974","INCLINATION":"53.0548","NORAD_CAT_ID":"48359","DECAY_DATE":null,"APOAPSIS":"548.030","LAUNCH_DATE":"2021-05-04","ELEMENT_SET_NO":"999","EPOCH":"2023-05-22T15:19:44.004864","REV_AT_EPOCH":"11297","FILE":"3914964","BSTAR":"0.00338350000000","TIME_SYSTEM":"UTC","EPHEMERIS_TYPE":"0","SEMIMAJOR_AXIS":"6925.218","PERIOD":"95.589","RA_OF_ASC_NODE":"269.7814","OBJECT_ID":"2021-038G","MEAN_ELEMENT_THEORY":"SGP4","OBJECT_TYPE":"PAYLOAD","CLASSIFICATION_TYPE":"U","COUNTRY_CODE":"US","MEAN_MOTION_DOT":"0.00050536","REF_FRAME":"TEME","GP_ID":"232356598","OBJECT_NAME":"STARLINK-2628","MEAN_MOTION_DDOT":"0.0000000000000","RCS_SIZE":"LARGE","MEAN_ANOMALY":"316.9138","ARG_OF_PERICENTER":"43.1958","SITE":"AFETR","CENTER_NAME":"EARTH","MEAN_MOTION":"15.06442524","PERIAPSIS":"546.137","ECCENTRICITY":"0.00013670"},{"MEAN_MOTION":"15.06387503","PERIAPSIS":"546.494","CENTER_NAME":"EARTH","ECCENTRICITY":"0.00010950","MEAN_MOTION_DDOT":"0.0000000000000","OBJECT_NAME":"STARLINK-2622","RCS_SIZE":"LARGE","MEAN_ANOMALY":"247.6216","GP_ID":"232357848","SITE":"AFETR","ARG_OF_PERICENTER":"112.4889","OBJECT_TYPE":"PAYLOAD","CLASSIFICATION_TYPE":"U","COUNTRY_CODE":"US","MEAN_MOTION_DOT":"0.00029035","MEAN_ELEMENT_THEORY":"SGP4","REF_FRAME":"TEME","SEMIMAJOR_AXIS":"6925.387","EPHEMERIS_TYPE":"0","OBJECT_ID":"2021-038H","RA_OF_ASC_NODE":"270.0946","PERIOD":"95.593","BSTAR":"0.00196080000000","TIME_SYSTEM":"UTC","EPOCH":"2023-05-22T13:38:54.485952","FILE":"3914964","REV_AT_EPOCH":"11296","DECAY_DATE":null,"APOAPSIS":"548.010","ELEMENT_SET_NO":"999","LAUNCH_DATE":"2021-05-04","INCLINATION":"53.0541","NORAD_CAT_ID":"48360","TLE_LINE1":"1 48360U 21038H   23142.56868618  .00029035  00000-0  19608-2 0  9990","TLE_LINE2":"2 48360  53.0541 270.0946 0001095 112.4889 247.6216 15.06387503112962"},{"EPOCH":"2023-05-22T15:09:06.528384","REV_AT_EPOCH":"11297","FILE":"3914964","BSTAR":"0.00242270000000","TIME_SYSTEM":"UTC","TLE_LINE1":"1 48361U 21038J   23142.63132556  .00036015  00000-0  24227-2 0  9993","TLE_LINE2":"2 48361  53.0550 269.8171 0000907 103.5276 256.5814 15.06426296112978","INCLINATION":"53.0550","NORAD_CAT_ID":"48361","DECAY_DATE":null,"APOAPSIS":"547.761","LAUNCH_DATE":"2021-05-04","ELEMENT_SET_NO":"999","GP_ID":"232357585","OBJECT_NAME":"STARLINK-2591","MEAN_MOTION_DDOT":"0.0000000000000","RCS_SIZE":"LARGE","MEAN_ANOMALY":"256.5814","ARG_OF_PERICENTER":"103.5276","SITE":"AFETR","CENTER_NAME":"EARTH","MEAN_MOTION":"15.06426296","PERIAPSIS":"546.505","ECCENTRICITY":"0.00009070","EPHEMERIS_TYPE":"0","SEMIMAJOR_AXIS":"6925.268","PERIOD":"95.590","OBJECT_ID":"2021-038J","RA_OF_ASC_NODE":"269.8171","MEAN_ELEMENT_THEORY":"SGP4","OBJECT_TYPE":"PAYLOAD","CLASSIFICATION_TYPE":"U","MEAN_MOTION_DOT":"0.00036015","COUNTRY_CODE":"US","REF_FRAME":"TEME"},{"TLE_LINE2":"2 48362  53.0533 269.4607 0001171  97.9476 262.1645 15.06383801112993","TLE_LINE1":"1 48362U 21038K   23142.73089148  .00027102  00000-0  18322-2 0  9999","INCLINATION":"53.0533","NORAD_CAT_ID":"48362","LAUNCH_DATE":"2021-05-04","ELEMENT_SET_NO":"999","DECAY_DATE":null,"APOAPSIS":"548.074","REV_AT_EPOCH":"11299","FILE":"3914964","EPOCH":"2023-05-22T17:32:29.023872","BSTAR":"0.00183220000000","TIME_SYSTEM":"UTC","PERIOD":"95.593","RA_OF_ASC_NODE":"269.4607","OBJECT_ID":"2021-038K","EPHEMERIS_TYPE":"0","SEMIMAJOR_AXIS":"6925.398","REF_FRAME":"TEME","MEAN_ELEMENT_THEORY":"SGP4","OBJECT_TYPE":"PAYLOAD","CLASSIFICATION_TYPE":"U","COUNTRY_CODE":"US","MEAN_MOTION_DOT":"0.00027102","ARG_OF_PERICENTER":"97.9476","SITE":"AFETR","GP_ID":"232356848","OBJECT_NAME":"STARLINK-2578","MEAN_MOTION_DDOT":"0.0000000000000","MEAN_ANOMALY":"262.1645","RCS_SIZE":"LARGE","ECCENTRICITY":"0.00011710","CENTER_NAME":"EARTH","MEAN_MOTION":"15.06383801","PERIAPSIS":"546.452"},{"TLE_LINE2":"2 48363  53.0548 264.9197 0001084  91.0307 269.0806 15.06413162113041","TLE_LINE1":"1 48363U 21038L   23142.60779845  .00000712  00000-0  66686-4 0  9992","INCLINATION":"53.0548","NORAD_CAT_ID":"48363","DECAY_DATE":null,"APOAPSIS":"547.924","LAUNCH_DATE":"2021-05-04","ELEMENT_SET_NO":"999","EPOCH":"2023-05-22T14:35:13.786080","REV_AT_EPOCH":"11304","FILE":"3914964","BSTAR":"0.00006668600000","TIME_SYSTEM":"UTC","EPHEMERIS_TYPE":"0","SEMIMAJOR_AXIS":"6925.308","PERIOD":"95.591","OBJECT_ID":"2021-038L","RA_OF_ASC_NODE":"264.9197","MEAN_ELEMENT_THEORY":"SGP4","CLASSIFICATION_TYPE":"U","OBJECT_TYPE":"PAYLOAD","MEAN_MOTION_DOT":"0.00000712","COUNTRY_CODE":"US","REF_FRAME":"TEME","GP_ID":"232357098","MEAN_MOTION_DDOT":"0.0000000000000","OBJECT_NAME":"STARLINK-2626","MEAN_ANOMALY":"269.0806","RCS_SIZE":"LARGE","ARG_OF_PERICENTER":"91.0307","SITE":"AFETR","CENTER_NAME":"EARTH","MEAN_MOTION":"15.06413162","PERIAPSIS":"546.423","ECCENTRICITY":"0.00010840"},{"TIME_SYSTEM":"UTC","BSTAR":"0.00340290000000","EPOCH":"2023-05-22T13:21:00.432864","REV_AT_EPOCH":"11303","FILE":"3914964","APOAPSIS":"547.890","DECAY_DATE":null,"LAUNCH_DATE":"2021-05-04","ELEMENT_SET_NO":"999","TLE_LINE1":"1 48364U 21038M   23142.55625501  .00050816  00000-0  34029-2 0  9990","TLE_LINE2":"2 48364  53.0544 265.3530 0001121  51.5377 308.5712 15.06432620113038","NORAD_CAT_ID":"48364","INCLINATION":"53.0544","CENTER_NAME":"EARTH","PERIAPSIS":"546.337","MEAN_MOTION":"15.06432620","ECCENTRICITY":"0.00011210","GP_ID":"232357349","MEAN_ANOMALY":"308.5712","RCS_SIZE":"LARGE","MEAN_MOTION_DDOT":"0.0000000000000","OBJECT_NAME":"STARLINK-2611","ARG_OF_PERICENTER":"51.5377","SITE":"AFETR","MEAN_ELEMENT_THEORY":"SGP4","MEAN_MOTION_DOT":"0.00050816","COUNTRY_CODE":"US","OBJECT_TYPE":"PAYLOAD","CLASSIFICATION_TYPE":"U","REF_FRAME":"TEME","EPHEMERIS_TYPE":"0","SEMIMAJOR_AXIS":"6925.249","PERIOD":"95.590","RA_OF_ASC_NODE":"265.3530","OBJECT_ID":"2021-038M"},{"CLASSIFICATION_TYPE":"U","OBJECT_TYPE":"PAYLOAD","COUNTRY_CODE":"US","MEAN_MOTION_DOT":"0.00050919","MEAN_ELEMENT_THEORY":"SGP4","REF_FRAME":"TEME","SEMIMAJOR_AXIS":"6925.206","EPHEMERIS_TYPE":"0","RA_OF_ASC_NODE":"264.7406","OBJECT_ID":"2021-038N","PERIOD":"95.589","MEAN_MOTION":"15.06446672","PERIAPSIS":"546.444","CENTER_NAME":"EARTH","ECCENTRICITY":"0.00009040","OBJECT_NAME":"STARLINK-2608","MEAN_MOTION_DDOT":"0.0000000000000","RCS_SIZE":"LARGE","MEAN_ANOMALY":"267.5441","GP_ID":"232358085","SITE":"AFETR","ARG_OF_PERICENTER":"92.5652","DECAY_DATE":null,"APOAPSIS":"547.697","ELEMENT_SET_NO":"999","LAUNCH_DATE":"2021-05-04","INCLINATION":"53.0534","NORAD_CAT_ID":"48365","TLE_LINE1":"1 48365U 21038N   23142.64837584  .00050919  00000-0  34084-2 0  9992","TLE_LINE2":"2 48365  53.0534 264.7406 0000904  92.5652 267.5441 15.06446672113059","BSTAR":"0.00340840000000","TIME_SYSTEM":"UTC","EPOCH":"2023-05-22T15:33:39.672576","FILE":"3914964","REV_AT_EPOCH":"11305"},{"FILE":"3914964","REV_AT_EPOCH":"11312","EPOCH":"2023-05-22T16:51:16.774272","TIME_SYSTEM":"UTC","BSTAR":"0.00002638400000","NORAD_CAT_ID":"48366","INCLINATION":"53.0554","TLE_LINE2":"2 48366  53.0554 259.4990 0001502 104.8406 255.2750 15.06392506113121","TLE_LINE1":"1 48366U 21038P   23142.70227748  .00000111  00000-0  26384-4 0  9990","ELEMENT_SET_NO":"999","LAUNCH_DATE":"2021-05-04","APOAPSIS":"548.277","DECAY_DATE":null,"SITE":"AFETR","ARG_OF_PERICENTER":"104.8406","MEAN_ANOMALY":"255.2750","RCS_SIZE":"LARGE","MEAN_MOTION_DDOT":"0.0000000000000","OBJECT_NAME":"STARLINK-2631","GP_ID":"232356349","ECCENTRICITY":"0.00015020","PERIAPSIS":"546.196","MEAN_MOTION":"15.06392506","CENTER_NAME":"EARTH","OBJECT_ID":"2021-038P","RA_OF_ASC_NODE":"259.4990","PERIOD":"95.593","SEMIMAJOR_AXIS":"6925.372","EPHEMERIS_TYPE":"0","REF_FRAME":"TEME","MEAN_MOTION_DOT":"0.00000111","COUNTRY_CODE":"US","CLASSIFICATION_TYPE":"U","OBJECT_TYPE":"PAYLOAD","MEAN_ELEMENT_THEORY":"SGP4"},{"TLE_LINE1":"1 48367U 21038Q   23142.63221756  .00026928  00000-0  18221-2 0  9999","TLE_LINE2":"2 48367  53.0539 259.8105 0001123  92.3453 267.7665 15.06352706113119","INCLINATION":"53.0539","NORAD_CAT_ID":"48367","DECAY_DATE":null,"APOAPSIS":"548.136","LAUNCH_DATE":"2021-05-04","ELEMENT_SET_NO":"999","EPOCH":"2023-05-22T15:10:23.597184","REV_AT_EPOCH":"11311","FILE":"3914964","BSTAR":"0.00182210000000","TIME_SYSTEM":"UTC","EPHEMERIS_TYPE":"0","SEMIMAJOR_AXIS":"6925.494","PERIOD":"95.595","RA_OF_ASC_NODE":"259.8105","OBJECT_ID":"2021-038Q","MEAN_ELEMENT_THEORY":"SGP4","OBJECT_TYPE":"PAYLOAD","CLASSIFICATION_TYPE":"U","MEAN_MOTION_DOT":"0.00026928","COUNTRY_CODE":"US","REF_FRAME":"TEME","GP_ID":"232356599","MEAN_MOTION_DDOT":"0.0000000000000","OBJECT_NAME":"STARLINK-2643","RCS_SIZE":"LARGE","MEAN_ANOMALY":"267.7665","ARG_OF_PERICENTER":"92.3453","SITE":"AFETR","CENTER_NAME":"EARTH","MEAN_MOTION":"15.06352706","PERIAPSIS":"546.581","ECCENTRICITY":"0.00011230"}];
